CCSDS_OMM_VERS = 2.0
CREATION_DATE  = 
ORIGINATOR     = 

OBJECT_NAME    = COSMOS 1743
OBJECT_ID      = 1986-034A
CENTER_NAME    = EARTH
REF_FRAME      = TEME
TIME_SYSTEM    = UTC
MEAN_ELEMENT_THEORY = SGP/SGP4

EPOCH          = 2025-11-05T04:00:10.848672
MEAN_MOTION    = 15.49542814
ECCENTRICITY   = .00084073
INCLINATION    = 82.5388
RA_OF_ASC_NODE = 203.5344
ARG_OF_PERICENTER = 40.5617
MEAN_ANOMALY   = 319.6259

EPHEMERIS_TYPE = 0
CLASSIFICATION_TYPE = U
NORAD_CAT_ID   = 16719
ELEMENT_SET_NO = 999
REV_AT_EPOCH   = 16091
BSTAR          = .52271438E-3
MEAN_MOTION_DOT = .28952E-3
MEAN_MOTION_DDOT = 0

CCSDS_OMM_VERS = 2.0
CREATION_DATE  = 
ORIGINATOR     = 

OBJECT_NAME    = SL-14 R/B
OBJECT_ID      = 1986-046B
CENTER_NAME    = EARTH
REF_FRAME      = TEME
TIME_SYSTEM    = UTC
MEAN_ELEMENT_THEORY = SGP/SGP4

EPOCH          = 2025-11-05T04:39:56.994624
MEAN_MOTION    = 14.85427562
ECCENTRICITY   = .00216553
INCLINATION    = 82.4842
RA_OF_ASC_NODE = 197.7668
ARG_OF_PERICENTER = 280.5910
MEAN_ANOMALY   = 79.2867

EPHEMERIS_TYPE = 0
CLASSIFICATION_TYPE = U
NORAD_CAT_ID   = 16792
ELEMENT_SET_NO = 999
REV_AT_EPOCH   = 10792
BSTAR          = .68251321E-4
MEAN_MOTION_DOT = .614E-5
MEAN_MOTION_DDOT = 0

CCSDS_OMM_VERS = 2.0
CREATION_DATE  = 
ORIGINATOR     = 

OBJECT_NAME    = SL-14 R/B
OBJECT_ID      = 1986-055B
CENTER_NAME    = EARTH
REF_FRAME      = TEME
TIME_SYSTEM    = UTC
MEAN_ELEMENT_THEORY = SGP/SGP4

EPOCH          = 2025-11-05T06:30:12.721248
MEAN_MOTION    = 14.85466144
ECCENTRICITY   = .00198127
INCLINATION    = 82.5208
RA_OF_ASC_NODE = 243.5748
ARG_OF_PERICENTER = 28.1562
MEAN_ANOMALY   = 85.4844

EPHEMERIS_TYPE = 0
CLASSIFICATION_TYPE = U
NORAD_CAT_ID   = 16882
ELEMENT_SET_NO = 999
REV_AT_EPOCH   = 10089
BSTAR          = .85446822E-4
MEAN_MOTION_DOT = .763E-5
MEAN_MOTION_DDOT = 0

CCSDS_OMM_VERS = 2.0
CREATION_DATE  = 
ORIGINATOR     = 

OBJECT_NAME    = AJISAI (EGS)
OBJECT_ID      = 1986-061A
CENTER_NAME    = EARTH
REF_FRAME      = TEME
TIME_SYSTEM    = UTC
MEAN_ELEMENT_THEORY = SGP/SGP4

EPOCH          = 2025-11-05T05:38:52.177632
MEAN_MOTION    = 12.44514155
ECCENTRICITY   = .00111567
INCLINATION    = 50.0068
RA_OF_ASC_NODE = 116.0403
ARG_OF_PERICENTER = 331.3080
MEAN_ANOMALY   = 78.6186

EPHEMERIS_TYPE = 0
CLASSIFICATION_TYPE = U
NORAD_CAT_ID   = 16908
ELEMENT_SET_NO = 999
REV_AT_EPOCH   = 45250
BSTAR          = .2443432E-4
MEAN_MOTION_DOT = -.94E-6
MEAN_MOTION_DDOT = 0

CCSDS_OMM_VERS = 2.0
CREATION_DATE  = 
ORIGINATOR     = 

OBJECT_NAME    = COSMOS 1812
OBJECT_ID      = 1987-003A
CENTER_NAME    = EARTH
REF_FRAME      = TEME
TIME_SYSTEM    = UTC
MEAN_ELEMENT_THEORY = SGP/SGP4

EPOCH          = 2025-11-05T02:21:34.561152
MEAN_MOTION    = 15.68002698
ECCENTRICITY   = .00039523
INCLINATION    = 82.4893
RA_OF_ASC_NODE = 332.5255
ARG_OF_PERICENTER = 159.0972
MEAN_ANOMALY   = 201.0452

EPHEMERIS_TYPE = 0
CLASSIFICATION_TYPE = U
NORAD_CAT_ID   = 17295
ELEMENT_SET_NO = 999
REV_AT_EPOCH   = 12474
BSTAR          = .50969039E-3
MEAN_MOTION_DOT = .56674E-3
MEAN_MOTION_DDOT = 0

CCSDS_OMM_VERS = 2.0
CREATION_DATE  = 
ORIGINATOR     = 

OBJECT_NAME    = SL-14 R/B
OBJECT_ID      = 1987-024B
CENTER_NAME    = EARTH
REF_FRAME      = TEME
TIME_SYSTEM    = UTC
MEAN_ELEMENT_THEORY = SGP/SGP4

EPOCH          = 2025-11-05T04:56:08.548800
MEAN_MOTION    = 14.85966219
ECCENTRICITY   = .00172629
INCLINATION    = 82.5306
RA_OF_ASC_NODE = 209.7073
ARG_OF_PERICENTER = 317.0605
MEAN_ANOMALY   = 42.9262

EPHEMERIS_TYPE = 0
CLASSIFICATION_TYPE = U
NORAD_CAT_ID   = 17567
ELEMENT_SET_NO = 999
REV_AT_EPOCH   = 6964
BSTAR          = .74186062E-4
MEAN_MOTION_DOT = .673E-5
MEAN_MOTION_DDOT = 0

CCSDS_OMM_VERS = 2.0
CREATION_DATE  = 
ORIGINATOR     = 

OBJECT_NAME    = COSMOS 1833
OBJECT_ID      = 1987-027A
CENTER_NAME    = EARTH
REF_FRAME      = TEME
TIME_SYSTEM    = UTC
MEAN_ELEMENT_THEORY = SGP/SGP4

EPOCH          = 2025-11-05T04:45:44.339040
MEAN_MOTION    = 14.13022740
ECCENTRICITY   = .00208378
INCLINATION    = 70.9158
RA_OF_ASC_NODE = 227.6929
ARG_OF_PERICENTER = 24.8084
MEAN_ANOMALY   = 335.4034

EPHEMERIS_TYPE = 0
CLASSIFICATION_TYPE = U
NORAD_CAT_ID   = 17589
ELEMENT_SET_NO = 999
REV_AT_EPOCH   = 99272
BSTAR          = -.12467458E-3
MEAN_MOTION_DOT = -.281E-5
MEAN_MOTION_DDOT = 0

CCSDS_OMM_VERS = 2.0
CREATION_DATE  = 
ORIGINATOR     = 

OBJECT_NAME    = SL-16 R/B
OBJECT_ID      = 1987-027B
CENTER_NAME    = EARTH
REF_FRAME      = TEME
TIME_SYSTEM    = UTC
MEAN_ELEMENT_THEORY = SGP/SGP4

EPOCH          = 2025-11-05T00:56:37.206528
MEAN_MOTION    = 14.17144025
ECCENTRICITY   = .00068833
INCLINATION    = 71.0016
RA_OF_ASC_NODE = 179.1590
ARG_OF_PERICENTER = 299.2131
MEAN_ANOMALY   = 60.8304

EPHEMERIS_TYPE = 0
CLASSIFICATION_TYPE = U
NORAD_CAT_ID   = 17590
ELEMENT_SET_NO = 999
REV_AT_EPOCH   = 99772
BSTAR          = .16579369E-3
MEAN_MOTION_DOT = .286E-5
MEAN_MOTION_DDOT = 0

CCSDS_OMM_VERS = 2.0
CREATION_DATE  = 
ORIGINATOR     = 

OBJECT_NAME    = SL-14 R/B
OBJECT_ID      = 1987-038B
CENTER_NAME    = EARTH
REF_FRAME      = TEME
TIME_SYSTEM    = UTC
MEAN_ELEMENT_THEORY = SGP/SGP4

EPOCH          = 2025-11-05T06:30:49.543200
MEAN_MOTION    = 14.85201447
ECCENTRICITY   = .00185306
INCLINATION    = 82.5028
RA_OF_ASC_NODE = 53.9823
ARG_OF_PERICENTER = 212.2011
MEAN_ANOMALY   = 147.8076

EPHEMERIS_TYPE = 0
CLASSIFICATION_TYPE = U
NORAD_CAT_ID   = 17912
ELEMENT_SET_NO = 999
REV_AT_EPOCH   = 6076
BSTAR          = .82057285E-4
MEAN_MOTION_DOT = .729E-5
MEAN_MOTION_DDOT = 0

CCSDS_OMM_VERS = 2.0
CREATION_DATE  = 
ORIGINATOR     = 

OBJECT_NAME    = COSMOS 1844
OBJECT_ID      = 1987-041A
CENTER_NAME    = EARTH
REF_FRAME      = TEME
TIME_SYSTEM    = UTC
MEAN_ELEMENT_THEORY = SGP/SGP4

EPOCH          = 2025-11-05T05:22:25.106016
MEAN_MOTION    = 14.14513133
ECCENTRICITY   = .00321732
INCLINATION    = 70.8977
RA_OF_ASC_NODE = 296.6980
ARG_OF_PERICENTER = 212.7985
MEAN_ANOMALY   = 147.1140

EPHEMERIS_TYPE = 0
CLASSIFICATION_TYPE = U
NORAD_CAT_ID   = 17973
ELEMENT_SET_NO = 999
REV_AT_EPOCH   = 98598
BSTAR          = .25432373E-3
MEAN_MOTION_DOT = .442E-5
MEAN_MOTION_DDOT = 0

CCSDS_OMM_VERS = 2.0
CREATION_DATE  = 
ORIGINATOR     = 

OBJECT_NAME    = SL-14 R/B
OBJECT_ID      = 1987-055B
CENTER_NAME    = EARTH
REF_FRAME      = TEME
TIME_SYSTEM    = UTC
MEAN_ELEMENT_THEORY = SGP/SGP4

EPOCH          = 2025-11-04T20:46:39.501408
MEAN_MOTION    = 14.85457337
ECCENTRICITY   = .00220919
INCLINATION    = 82.4966
RA_OF_ASC_NODE = 106.6809
ARG_OF_PERICENTER = 67.8792
MEAN_ANOMALY   = 292.4767

EPHEMERIS_TYPE = 0
CLASSIFICATION_TYPE = U
NORAD_CAT_ID   = 18153
ELEMENT_SET_NO = 999
REV_AT_EPOCH   = 5140
BSTAR          = .66415105E-4
MEAN_MOTION_DOT = .599E-5
MEAN_MOTION_DDOT = 0

CCSDS_OMM_VERS = 2.0
CREATION_DATE  = 
ORIGINATOR     = 

OBJECT_NAME    = COSMOS 1867
OBJECT_ID      = 1987-060A
CENTER_NAME    = EARTH
REF_FRAME      = TEME
TIME_SYSTEM    = UTC
MEAN_ELEMENT_THEORY = SGP/SGP4

EPOCH          = 2025-11-05T05:25:58.925280
MEAN_MOTION    = 14.31476433
ECCENTRICITY   = .00137392
INCLINATION    = 65.0101
RA_OF_ASC_NODE = 295.2542
ARG_OF_PERICENTER = 267.3593
MEAN_ANOMALY   = 92.5918

EPHEMERIS_TYPE = 0
CLASSIFICATION_TYPE = U
NORAD_CAT_ID   = 18187
ELEMENT_SET_NO = 999
REV_AT_EPOCH   = 212
BSTAR          = .36647059E-4
MEAN_MOTION_DOT = -.3E-7
MEAN_MOTION_DDOT = 0

