COSMOS 1743             
1 16719U 86034A   25309.16679223  .00028952  00000+0  52271-3 0  9995
2 16719  82.5388 203.5344 0008407  40.5617 319.6259 15.49542814160918
SL-14 R/B               
1 16792U 86046B   25309.19440966  .00000614  00000+0  68251-4 0  9993
2 16792  82.4842 197.7668 0021655 280.5910  79.2867 14.85427562107925
SL-14 R/B               
1 16882U 86055B   25309.27098057  .00000763  00000+0  85447-4 0  9993
2 16882  82.5208 243.5748 0019812  28.1562  85.4844 14.85466144100894
AJISAI (EGS)            
1 16908U 86061A   25309.23532613 -.00000094  00000+0  24434-4 0  9993
2 16908  50.0068 116.0403 0011156 331.3080  78.6186 12.44514155452506
COSMOS 1812             
1 17295U 87003A   25309.09831668  .00056674  00000+0  50969-3 0  9991
2 17295  82.4893 332.5255 0003952 159.0972 201.0452 15.68002698124744
SL-14 R/B               
1 17567U 87024B   25309.20565450  .00000673  00000+0  74186-4 0  9998
2 17567  82.5306 209.7073 0017262 317.0605  42.9262 14.85966219 69641
COSMOS 1833             
1 17589U 87027A   25309.19842985 -.00000281  00000+0 -12467-3 0  9994
2 17589  70.9158 227.6929 0020837  24.8084 335.4034 14.13022740992720
SL-16 R/B               
1 17590U 87027B   25309.03931952  .00000286  00000+0  16579-3 0  9993
2 17590  71.0016 179.1590 0006883 299.2131  60.8304 14.17144025997727
SL-14 R/B               
1 17912U 87038B   25309.27140675  .00000729  00000+0  82057-4 0  9990
2 17912  82.5028  53.9823 0018530 212.2011 147.8076 14.85201447 60761
COSMOS 1844             
1 17973U 87041A   25309.22390169  .00000442  00000+0  25432-3 0  9996
2 17973  70.8977 296.6980 0032173 212.7985 147.1140 14.14513133985980
SL-14 R/B               
1 18153U 87055B   25308.86573497  .00000599  00000+0  66415-4 0  9998
2 18153  82.4966 106.6809 0022091  67.8792 292.4767 14.85457337 51402
COSMOS 1867             
1 18187U 87060A   25309.22637645 -.00000003  00000+0  36647-4 0  9993
2 18187  65.0101 295.2542 0013739 267.3593  92.5918 14.31476433  2122
